[{"OBJECT_NAME":"STARLINK-2180","OBJECT_ID":"2021-017AS","EPOCH":"2026-03-09T16:39:20.636640","MEAN_MOTION":15.38029481,"ECCENTRICITY":7.347e-5,"INCLINATION":53.1608,"RA_OF_ASC_NODE":219.0004,"ARG_OF_PERICENTER":49.2837,"MEAN_ANOMALY":310.823,"EPHEMERIS_TYPE":0,"CLASSIFICATION_TYPE":"U","NORAD_CAT_ID":47762,"ELEMENT_SET_NO":999,"REV_AT_EPOCH":27765,"BSTAR":0.00067692764,"MEAN_MOTION_DOT":0.00025397,"MEAN_MOTION_DDOT":0},{"OBJECT_NAME":"NAOS","OBJECT_ID":"2025-188C","EPOCH":"2026-03-09T21:13:26.052384","MEAN_MOTION":15.38520358,"ECCENTRICITY":0.00016976,"INCLINATION":97.2175,"RA_OF_ASC_NODE":145.8879,"ARG_OF_PERICENTER":42.2355,"MEAN_ANOMALY":317.9021,"EPHEMERIS_TYPE":0,"CLASSIFICATION_TYPE":"U","NORAD_CAT_ID":65317,"ELEMENT_SET_NO":999,"REV_AT_EPOCH":2999,"BSTAR":0.000386482,"MEAN_MOTION_DOT":0.00014623,"MEAN_MOTION_DDOT":0}]
